NORAD_CAT_ID,OBJECT_NAME,OBJECT_TYPE,EPOCH,MEAN_MOTION,ECCENTRICITY,INCLINATION,RA_OF_ASC_NODE,ARG_OF_PERICENTER,MEAN_ANOMALY,BSTAR,MEAN_MOTION_DOT,MEAN_MOTION_DDOT,TLE_LINE0,TLE_LINE1,TLE_LINE2,SEMIMAJOR_AXIS,PERIOD,APOGEE,PERIGEE,DECAYED
53268.0,STARLINK-4109,PAYLOAD,2024-04-03 19:03:06,15.08837764,0.0001434,53.2166,118.5162,98.3651,261.7504,5.8943e-05,6.5e-06,0.0,0 STARLINK-4109,1 53268U 22086AC  24094.79382938  .00000650  00000-0  58943-4 0  9994,2 53268  53.2166 118.5162 0001434  98.3651 261.7504 15.08837764 94655,6917.887,95.438,540.744,538.76,0.0
53268.0,STARLINK-4109,PAYLOAD,2024-04-04 07:46:11,15.08842834,0.000133,53.216,116.1378,93.7112,266.4032,4.9468e-05,5e-06,0.0,0 STARLINK-4109,1 53268U 22086AC  24095.32374515  .00000500  00000-0  49468-4 0  9992,2 53268  53.2160 116.1378 0001330  93.7112 266.4032 15.08842834 94559,6917.872,95.437,540.657,538.817,0.0
53268.0,STARLINK-4109,PAYLOAD,2024-04-04 18:53:53,15.08847162,0.0001336,53.216,114.0562,92.2678,267.8467,2.8745e-05,1.7e-06,0.0,0 STARLINK-4109,1 53268U 22086AC  24095.78742138  .00000170  00000-0  28745-4 0  9990,2 53268  53.2160 114.0562 0001336  92.2678 267.8467 15.08847162 94802,6917.858,95.437,540.648,538.799,0.0
53268.0,STARLINK-4109,PAYLOAD,2024-04-05 10:47:44,15.08842328,0.0001329,53.216,111.0832,89.3765,270.7379,6.96e-05,8.2e-06,0.0,0 STARLINK-4109,1 53268U 22086AC  24096.44982285  .00000820  00000-0  69600-4 0  9990,2 53268  53.2160 111.0832 0001329  89.3765 270.7379 15.08842328 94720,6917.873,95.437,540.658,538.819,0.0
53268.0,STARLINK-4109,PAYLOAD,2024-04-06 07:27:45,15.08837695,0.0001379,53.2166,107.2163,92.8637,267.2513,-7.664e-06,-4.1e-06,0.0,0 STARLINK-4109,1 53268U 22086AC  24097.31094700 -.00000410  00000-0 -76640-5 0  9993,2 53268  53.2166 107.2163 0001379  92.8637 267.2513 15.08837695 94858,6917.887,95.438,540.706,538.798,0.0
53268.0,STARLINK-4109,PAYLOAD,2024-04-06 17:00:04,15.08841322,0.0001335,53.2167,105.4317,91.2994,268.8151,-8.5371e-06,-4.24e-06,0.0,0 STARLINK-4109,1 53268U 22086AC  24097.70838453 -.00000424  00000-0 -85371-5 0  9993,2 53268  53.2167 105.4317 0001335  91.2994 268.8151 15.08841322 95095,6917.876,95.437,540.665,538.818,0.0
53268.0,STARLINK-4109,PAYLOAD,2024-04-07 07:18:33,15.08831488,0.0001506,53.2177,102.756,93.205,266.9114,-4.1637e-05,-9.5e-06,0.0,0 STARLINK-4109,1 53268U 22086AC  24098.30455400 -.00000950  00000-0 -41637-4 0  9997,2 53268  53.2177 102.7560 0001506  93.2050 266.9114 15.08831488 95181,6917.906,95.438,540.813,538.73,0.0
53268.0,STARLINK-4109,PAYLOAD,2024-04-07 16:50:52,15.08836438,0.0001488,53.2185,100.9734,93.2116,266.9046,-1.7811e-05,-5.71e-06,0.0,0 STARLINK-4109,1 53268U 22086AC  24098.70199165 -.00000571  00000-0 -17811-4 0  9990,2 53268  53.2185 100.9734 0001488  93.2116 266.9046 15.08836438 95246,6917.891,95.438,540.786,538.727,0.0
53268.0,STARLINK-4109,PAYLOAD,2024-04-08 03:58:34,15.08833786,0.000148,53.2184,98.8931,97.1376,262.9784,5.5095e-05,5.89e-06,0.0,0 STARLINK-4109,1 53268U 22086AC  24099.16567237  .00000589  00000-0  55095-4 0  9993,2 53268  53.2184  98.8931 0001480  97.1376 262.9784 15.08833786 95138,6917.899,95.438,540.788,538.741,0.0
53268.0,STARLINK-4109,PAYLOAD,2024-04-08 08:44:43,15.08833996,0.0001473,53.2182,98.0007,96.3103,263.8057,5.3818e-05,5.69e-06,0.0,0 STARLINK-4109,1 53268U 22086AC  24099.36439317  .00000569  00000-0  53818-4 0  9991,2 53268  53.2182  98.0007 0001473  96.3103 263.8057 15.08833996 95342,6917.899,95.438,540.783,538.745,0.0
53268.0,STARLINK-4109,PAYLOAD,2024-04-08 16:41:38,15.08840589,0.0001477,53.2183,96.5139,96.2238,263.8922,7.8782e-05,9.66e-06,0.0,0 STARLINK-4109,1 53268U 22086AC  24099.69558898  .00000966  00000-0  78782-4 0  9991,2 53268  53.2183  96.5139 0001477  96.2238 263.8922 15.08840589 95396,6917.879,95.438,540.765,538.722,0.0
53268.0,STARLINK-4109,PAYLOAD,2024-04-09 08:35:30,15.08835985,0.0001462,53.2179,93.5396,92.3265,267.7895,8.2058e-05,1.018e-05,0.0,0 STARLINK-4109,1 53268U 22086AC  24100.35799364  .00001018  00000-0  82058-4 0  9992,2 53268  53.2179  93.5396 0001462  92.3265 267.7895 15.08835985 95312,6917.893,95.438,540.769,538.746,0.0
53268.0,STARLINK-4109,PAYLOAD,2024-04-10 06:50:54,15.08842473,0.0001432,53.2177,89.3759,89.3678,270.7478,4.3313e-05,4.01e-06,0.0,0 STARLINK-4109,1 53268U 22086AC  24101.28535173  .00000401  00000-0  43313-4 0  9997,2 53268  53.2177  89.3759 0001432  89.3678 270.7478 15.08842473 95633,6917.873,95.437,540.728,538.747,0.0
53268.0,STARLINK-4109,PAYLOAD,2024-04-10 16:23:12,15.08848223,0.0001422,53.2173,87.5909,82.3049,277.8105,6.3541e-05,7.24e-06,0.0,0 STARLINK-4109,1 53268U 22086AC  24101.68278607  .00000724  00000-0  63541-4 0  9990,2 53268  53.2173  87.5909 0001422  82.3049 277.8105 15.08848223 95511,6917.855,95.437,540.704,538.737,0.0
53268.0,STARLINK-4109,PAYLOAD,2024-04-10 22:44:45,15.08845272,0.0001504,53.2178,86.4001,85.0746,275.0418,9.1458e-05,1.168e-05,0.0,0 STARLINK-4109,1 53268U 22086AC  24101.94774609  .00001168  00000-0  91458-4 0  9993,2 53268  53.2178  86.4001 0001504  85.0746 275.0418 15.08845272 95734,6917.864,95.437,540.77,538.689,0.0
53268.0,STARLINK-4109,PAYLOAD,2024-04-11 05:06:18,15.08834025,0.0001597,53.2184,85.2109,85.9388,274.1787,5.8839e-05,6.48e-06,0.0,0 STARLINK-4109,1 53268U 22086AC  24102.21271580  .00000648  00000-0  58839-4 0  9992,2 53268  53.2184  85.2109 0001597  85.9388 274.1787 15.08834025 95597,6917.899,95.438,540.868,538.659,0.0
53268.0,STARLINK-4109,PAYLOAD,2024-04-11 08:17:04,15.08838977,0.0001398,53.2171,84.6157,88.7529,271.3623,9.9612e-06,-1.29e-06,0.0,0 STARLINK-4109,1 53268U 22086AC  24102.34519341 -.00000129  00000-0  99612-5 0  9996,2 53268  53.2171  84.6157 0001398  88.7529 271.3623 15.08838977 95796,6917.884,95.438,540.716,538.781,0.0
53268.0,STARLINK-4109,PAYLOAD,2024-04-11 16:13:59,15.08843733,0.0001398,53.2173,83.1296,90.5069,269.6083,5.7725e-05,6.31e-06,0.0,0 STARLINK-4109,1 53268U 22086AC  24102.67638860  .00000631  00000-0  57725-4 0  9995,2 53268  53.2173  83.1296 0001398  90.5069 269.6083 15.08843733 95668,6917.869,95.437,540.701,538.767,0.0
53268.0,STARLINK-4109,PAYLOAD,2024-04-12 08:07:51,15.08842068,0.0001611,53.2191,80.1546,111.624,248.4924,4.5947e-06,-2.15e-06,0.0,0 STARLINK-4109,1 53268U 22086AC  24103.33879073 -.00000215  00000-0  45947-5 0  9995,2 53268  53.2191  80.1546 0001611 111.6240 248.4924 15.08842068 95947,6917.874,95.437,540.854,538.625,0.0
53268.0,STARLINK-4109,PAYLOAD,2024-04-13 04:47:52,15.08839077,0.0001541,53.2191,76.289,102.0267,258.0898,4.3301e-05,4.01e-06,0.0,0 STARLINK-4109,1 53268U 22086AC  24104.19991209  .00000401  00000-0  43301-4 0  9993,2 53268  53.2191  76.2890 0001541 102.0267 258.0898 15.08839077 95897,6917.883,95.438,540.814,538.682,0.0
53268.0,STARLINK-4109,PAYLOAD,2024-04-13 07:58:38,15.08839206,0.0001538,53.2191,75.6942,101.9289,258.1876,4.2262e-05,3.85e-06,0.0,0 STARLINK-4109,1 53268U 22086AC  24104.33239210  .00000385  00000-0  42262-4 0  9992,2 53268  53.2191  75.6942 0001538 101.9289 258.1876 15.08839206 96090,6917.883,95.438,540.812,538.684,0.0
53268.0,STARLINK-4109,PAYLOAD,2024-04-14 07:49:25,15.08838549,0.0001406,53.2186,71.2343,99.6868,260.4283,2.8682e-05,1.69e-06,0.0,0 STARLINK-4109,1 53268U 22086AC  24105.32599413  .00000169  00000-0  28682-4 0  9996,2 53268  53.2186  71.2343 0001406  99.6868 260.4283 15.08838549 96065,6917.885,95.438,540.722,538.777,0.0
53268.0,STARLINK-4109,PAYLOAD,2024-04-15 07:40:13,15.08838517,0.0001451,53.2188,66.7739,106.8554,253.2597,4.1571e-05,3.74e-06,0.0,0 STARLINK-4109,1 53268U 22086AC  24106.31959572  .00000374  00000-0  41571-4 0  9992,2 53268  53.2188  66.7739 0001451 106.8554 253.2597 15.08838517 96397,6917.885,95.438,540.754,538.746,0.0
53268.0,STARLINK-4109,PAYLOAD,2024-04-16 02:44:51,15.08832075,0.0001424,53.2185,63.2069,92.8823,267.2332,2.553e-05,1.18e-06,0.0,0 STARLINK-4109,1 53268U 22086AC  24107.11448221  .00000118  00000-0  25530-4 0  9998,2 53268  53.2185  63.2069 0001424  92.8823 267.2332 15.08832075 96334,6917.905,95.438,540.755,538.785,0.0
53268.0,STARLINK-4109,PAYLOAD,2024-04-16 13:52:32,15.08849737,0.0001457,53.2197,61.1263,92.4656,267.6503,0.00017545,2.506e-05,0.0,0 STARLINK-4109,1 53268U 22086AC  24107.57814815  .00002506  00000-0  17545-3 0  9993,2 53268  53.2197  61.1263 0001457  92.4656 267.6503 15.08849737 96580,6917.851,95.437,540.724,538.708,0.0
53268.0,STARLINK-4109,PAYLOAD,2024-04-17 05:46:22,15.08857654,0.0001396,53.2193,58.1524,96.6367,263.4784,0.00015145,2.124e-05,0.0,0 STARLINK-4109,1 53268U 22086AC  24108.24054235  .00002124  00000-0  15145-3 0  9990,2 53268  53.2193  58.1524 0001396  96.6367 263.4784 15.08857654 96682,6917.826,95.436,540.657,538.726,0.0
53268.0,STARLINK-4109,PAYLOAD,2024-04-18 04:01:48,15.08836535,0.0001238,53.219,53.9892,117.9003,242.2115,-6.4627e-05,-1.316e-05,0.0,0 STARLINK-4109,1 53268U 22086AC  24109.16792258 -.00001316  00000-0 -64627-4 0  9990,2 53268  53.2190  53.9892 0001238 117.9003 242.2115 15.08836535 96643,6917.891,95.438,540.612,538.9,0.0
53268.0,STARLINK-4109,PAYLOAD,2024-04-19 05:27:57,15.08852264,0.0001389,53.2186,49.23,116.8599,243.2536,3.9926e-05,3.48e-06,0.0,0 STARLINK-4109,1 53268U 22086AC  24110.22775457  .00000348  00000-0  39926-4 0  9997,2 53268  53.2186  49.2300 0001389 116.8599 243.2536 15.08852264 96808,6917.843,95.437,540.669,538.747,0.0
53268.0,STARLINK-4109,PAYLOAD,2024-04-19 19:46:26,15.08838347,0.0001569,53.2193,46.5528,75.5922,284.5245,0.00036167,5.472e-05,0.0,0 STARLINK-4109,1 53268U 22086AC  24110.82391577  .00005472  00000-0  36167-3 0  9996,2 53268  53.2193  46.5528 0001569  75.5922 284.5245 15.08838347 96899,6917.885,95.438,540.836,538.665,0.0
53268.0,STARLINK-4109,PAYLOAD,2024-04-20 05:18:45,15.08866886,0.0001592,53.2183,44.7649,100.9963,259.1208,0.00066489,0.00010317,0.0,0 STARLINK-4109,1 53268U 22086AC  24111.22135455  .00010317  00000-0  66489-3 0  9996,2 53268  53.2183  44.7649 0001592 100.9963 259.1208 15.08866886 96959,6917.798,95.436,540.765,538.562,0.0
